0 SCOUT G-1 DEB
1 18530U 87080F   13282.17975961  .00000167  00000-0  22578-3 0  5820
2 18530 090.3800 354.1934 0087377 181.5027 267.6138 13.54776621287815
0 SCOUT G-1 DEB
1 18530U 87080F   13287.26489304  .00000220  00000-0  30047-3 0  5848
2 18530 090.3793 354.3895 0087842 166.8449 228.6584 13.54778292288500
0 SCOUT G-1 DEB
1 18530U 87080F   13290.14401904  .00000225  00000-0  30780-3 0  5859
2 18530 090.3784 354.5004 0088056 158.5854 230.6119 13.54779861288892
0 SCOUT G-1 DEB
1 18530U 87080F   13292.75397273  .00000221  00000-0  30186-3 0  5868
2 18530 090.3779 354.6006 0088216 151.1217 359.7588 13.54781168289245
0 SCOUT G-1 DEB
1 18530U 87080F   13295.17153037  .00000209  00000-0  28397-3 0  5873
2 18530 090.3777 354.6932 0088394 144.1886 270.5911 13.54782357289579
